CCSDS_OMM_VERS = 2.0
CREATION_DATE  = 
ORIGINATOR     = 

OBJECT_NAME    = KUIPER-00203
OBJECT_ID      = 2026-030K
CENTER_NAME    = EARTH
REF_FRAME      = TEME
TIME_SYSTEM    = UTC
MEAN_ELEMENT_THEORY = SGP/SGP4

EPOCH          = 2026-02-19T16:00:01.999584
MEAN_MOTION    = 15.33293838
ECCENTRICITY   = .0012206
INCLINATION    = 51.8807
RA_OF_ASC_NODE = 306.0988
ARG_OF_PERICENTER = 9.4260
MEAN_ANOMALY   = 310.2137

EPHEMERIS_TYPE = 0
CLASSIFICATION_TYPE = U
NORAD_CAT_ID   = 67773
ELEMENT_SET_NO = 999
REV_AT_EPOCH   = 130
BSTAR          = .16336E-2
MEAN_MOTION_DOT = .53466E-3
MEAN_MOTION_DDOT = 0

CCSDS_OMM_VERS = 2.0
CREATION_DATE  = 
ORIGINATOR     = 

OBJECT_NAME    = KUIPER-00205
OBJECT_ID      = 2026-030L
CENTER_NAME    = EARTH
REF_FRAME      = TEME
TIME_SYSTEM    = UTC
MEAN_ELEMENT_THEORY = SGP/SGP4

EPOCH          = 2026-02-19T16:00:01.999584
MEAN_MOTION    = 15.35458847
ECCENTRICITY   = .0001428
INCLINATION    = 51.8811
RA_OF_ASC_NODE = 305.9942
ARG_OF_PERICENTER = 354.0945
MEAN_ANOMALY   = 18.4628

EPHEMERIS_TYPE = 0
CLASSIFICATION_TYPE = U
NORAD_CAT_ID   = 67774
ELEMENT_SET_NO = 999
REV_AT_EPOCH   = 151
BSTAR          = .19179E-2
MEAN_MOTION_DOT = .67308E-3
MEAN_MOTION_DDOT = 0

CCSDS_OMM_VERS = 2.0
CREATION_DATE  = 
ORIGINATOR     = 

OBJECT_NAME    = KUIPER-00208
OBJECT_ID      = 2026-030M
CENTER_NAME    = EARTH
REF_FRAME      = TEME
TIME_SYSTEM    = UTC
MEAN_ELEMENT_THEORY = SGP/SGP4

EPOCH          = 2026-02-19T16:00:01.999584
MEAN_MOTION    = 15.32708847
ECCENTRICITY   = .001472
INCLINATION    = 51.8843
RA_OF_ASC_NODE = 306.1261
ARG_OF_PERICENTER = 9.7564
MEAN_ANOMALY   = 299.4404

EPHEMERIS_TYPE = 0
CLASSIFICATION_TYPE = U
NORAD_CAT_ID   = 67775
ELEMENT_SET_NO = 999
REV_AT_EPOCH   = 206
BSTAR          = .16272E-2
MEAN_MOTION_DOT = .52324E-3
MEAN_MOTION_DDOT = 0

CCSDS_OMM_VERS = 2.0
CREATION_DATE  = 
ORIGINATOR     = 

OBJECT_NAME    = KUIPER-00209
OBJECT_ID      = 2026-030N
CENTER_NAME    = EARTH
REF_FRAME      = TEME
TIME_SYSTEM    = UTC
MEAN_ELEMENT_THEORY = SGP/SGP4

EPOCH          = 2026-02-19T16:00:01.999584
MEAN_MOTION    = 15.32812845
ECCENTRICITY   = .0012533
INCLINATION    = 51.8836
RA_OF_ASC_NODE = 306.1153
ARG_OF_PERICENTER = 8.9215
MEAN_ANOMALY   = 304.8928

EPHEMERIS_TYPE = 0
CLASSIFICATION_TYPE = U
NORAD_CAT_ID   = 67776
ELEMENT_SET_NO = 999
REV_AT_EPOCH   = 171
BSTAR          = .16252E-2
MEAN_MOTION_DOT = .52383E-3
MEAN_MOTION_DDOT = 0

CCSDS_OMM_VERS = 2.0
CREATION_DATE  = 
ORIGINATOR     = 

OBJECT_NAME    = KUIPER-00213
OBJECT_ID      = 2026-030P
CENTER_NAME    = EARTH
REF_FRAME      = TEME
TIME_SYSTEM    = UTC
MEAN_ELEMENT_THEORY = SGP/SGP4

EPOCH          = 2026-02-19T16:00:01.999584
MEAN_MOTION    = 15.32854247
ECCENTRICITY   = .0014195
INCLINATION    = 51.8818
RA_OF_ASC_NODE = 306.1141
ARG_OF_PERICENTER = 9.5172
MEAN_ANOMALY   = 303.1803

EPHEMERIS_TYPE = 0
CLASSIFICATION_TYPE = U
NORAD_CAT_ID   = 67777
ELEMENT_SET_NO = 999
REV_AT_EPOCH   = 222
BSTAR          = .16297E-2
MEAN_MOTION_DOT = .52636E-3
MEAN_MOTION_DDOT = 0

CCSDS_OMM_VERS = 2.0
CREATION_DATE  = 
ORIGINATOR     = 

OBJECT_NAME    = KUIPER-00214
OBJECT_ID      = 2026-030Q
CENTER_NAME    = EARTH
REF_FRAME      = TEME
TIME_SYSTEM    = UTC
MEAN_ELEMENT_THEORY = SGP/SGP4

EPOCH          = 2026-02-19T16:00:01.999584
MEAN_MOTION    = 15.35997854
ECCENTRICITY   = .0002153
INCLINATION    = 51.8844
RA_OF_ASC_NODE = 305.9667
ARG_OF_PERICENTER = 127.3110
MEAN_ANOMALY   = 259.2704

EPHEMERIS_TYPE = 0
CLASSIFICATION_TYPE = U
NORAD_CAT_ID   = 67778
ELEMENT_SET_NO = 999
REV_AT_EPOCH   = 213
BSTAR          = .16339E-2
MEAN_MOTION_DOT = .58219E-3
MEAN_MOTION_DDOT = 0

CCSDS_OMM_VERS = 2.0
CREATION_DATE  = 
ORIGINATOR     = 

OBJECT_NAME    = KUIPER-00215
OBJECT_ID      = 2026-030R
CENTER_NAME    = EARTH
REF_FRAME      = TEME
TIME_SYSTEM    = UTC
MEAN_ELEMENT_THEORY = SGP/SGP4

EPOCH          = 2026-02-19T16:00:01.999584
MEAN_MOTION    = 15.33714516
ECCENTRICITY   = .0009857
INCLINATION    = 51.8846
RA_OF_ASC_NODE = 306.0826
ARG_OF_PERICENTER = 6.9001
MEAN_ANOMALY   = 323.7198

EPHEMERIS_TYPE = 0
CLASSIFICATION_TYPE = U
NORAD_CAT_ID   = 67779
ELEMENT_SET_NO = 999
REV_AT_EPOCH   = 130
BSTAR          = .1638E-2
MEAN_MOTION_DOT = .54295E-3
MEAN_MOTION_DDOT = 0

CCSDS_OMM_VERS = 2.0
CREATION_DATE  = 
ORIGINATOR     = 

OBJECT_NAME    = KUIPER-00218
OBJECT_ID      = 2026-030S
CENTER_NAME    = EARTH
REF_FRAME      = TEME
TIME_SYSTEM    = UTC
MEAN_ELEMENT_THEORY = SGP/SGP4

EPOCH          = 2026-02-19T16:00:01.999584
MEAN_MOTION    = 15.34413261
ECCENTRICITY   = .0006105
INCLINATION    = 51.8836
RA_OF_ASC_NODE = 306.0475
ARG_OF_PERICENTER = 5.5809
MEAN_ANOMALY   = 341.6326

EPHEMERIS_TYPE = 0
CLASSIFICATION_TYPE = U
NORAD_CAT_ID   = 67780
ELEMENT_SET_NO = 999
REV_AT_EPOCH   = 130
BSTAR          = .16845E-2
MEAN_MOTION_DOT = .57073E-3
MEAN_MOTION_DDOT = 0

CCSDS_OMM_VERS = 2.0
CREATION_DATE  = 
ORIGINATOR     = 

OBJECT_NAME    = KUIPER-00220
OBJECT_ID      = 2026-030T
CENTER_NAME    = EARTH
REF_FRAME      = TEME
TIME_SYSTEM    = UTC
MEAN_ELEMENT_THEORY = SGP/SGP4

EPOCH          = 2026-02-19T16:00:01.999584
MEAN_MOTION    = 15.33929123
ECCENTRICITY   = .0007839
INCLINATION    = 51.8814
RA_OF_ASC_NODE = 306.0667
ARG_OF_PERICENTER = 6.0675
MEAN_ANOMALY   = 330.4782

EPHEMERIS_TYPE = 0
CLASSIFICATION_TYPE = U
NORAD_CAT_ID   = 67781
ELEMENT_SET_NO = 999
REV_AT_EPOCH   = 184
BSTAR          = .16915E-2
MEAN_MOTION_DOT = .56451E-3
MEAN_MOTION_DDOT = 0

CCSDS_OMM_VERS = 2.0
CREATION_DATE  = 
ORIGINATOR     = 

OBJECT_NAME    = KUIPER-00222
OBJECT_ID      = 2026-030U
CENTER_NAME    = EARTH
REF_FRAME      = TEME
TIME_SYSTEM    = UTC
MEAN_ELEMENT_THEORY = SGP/SGP4

EPOCH          = 2026-02-19T16:00:01.999584
MEAN_MOTION    = 15.32574122
ECCENTRICITY   = .0016334
INCLINATION    = 51.8819
RA_OF_ASC_NODE = 306.1332
ARG_OF_PERICENTER = 11.5256
MEAN_ANOMALY   = 291.3680

EPHEMERIS_TYPE = 0
CLASSIFICATION_TYPE = U
NORAD_CAT_ID   = 67782
ELEMENT_SET_NO = 999
REV_AT_EPOCH   = 217
BSTAR          = .16256E-2
MEAN_MOTION_DOT = .52087E-3
MEAN_MOTION_DDOT = 0

CCSDS_OMM_VERS = 2.0
CREATION_DATE  = 
ORIGINATOR     = 

OBJECT_NAME    = KUIPER-00223
OBJECT_ID      = 2026-030V
CENTER_NAME    = EARTH
REF_FRAME      = TEME
TIME_SYSTEM    = UTC
MEAN_ELEMENT_THEORY = SGP/SGP4

EPOCH          = 2026-02-19T16:00:01.999584
MEAN_MOTION    = 15.33444467
ECCENTRICITY   = .0011886
INCLINATION    = 51.8834
RA_OF_ASC_NODE = 306.0948
ARG_OF_PERICENTER = 6.0457
MEAN_ANOMALY   = 317.8098

EPHEMERIS_TYPE = 0
CLASSIFICATION_TYPE = U
NORAD_CAT_ID   = 67783
ELEMENT_SET_NO = 999
REV_AT_EPOCH   = 199
BSTAR          = .16493E-2
MEAN_MOTION_DOT = .5424E-3
MEAN_MOTION_DDOT = 0

CCSDS_OMM_VERS = 2.0
CREATION_DATE  = 
ORIGINATOR     = 

OBJECT_NAME    = KUIPER-00225
OBJECT_ID      = 2026-030W
CENTER_NAME    = EARTH
REF_FRAME      = TEME
TIME_SYSTEM    = UTC
MEAN_ELEMENT_THEORY = SGP/SGP4

EPOCH          = 2026-02-19T16:00:01.999584
MEAN_MOTION    = 15.35054287
ECCENTRICITY   = .0003184
INCLINATION    = 51.8811
RA_OF_ASC_NODE = 306.0120
ARG_OF_PERICENTER = 359.7468
MEAN_ANOMALY   = 3.9218

EPHEMERIS_TYPE = 0
CLASSIFICATION_TYPE = U
NORAD_CAT_ID   = 67784
ELEMENT_SET_NO = 999
REV_AT_EPOCH   = 130
BSTAR          = .16487E-2
MEAN_MOTION_DOT = .56988E-3
MEAN_MOTION_DDOT = 0

